[{"OBJECT_NAME":"COSMOS 2565","OBJECT_ID":"2022-163A","EPOCH":"2026-03-09T23:20:24.133056","MEAN_MOTION":13.96674174,"ECCENTRICITY":0.00058338,"INCLINATION":67.1493,"RA_OF_ASC_NODE":348.3576,"ARG_OF_PERICENTER":276.4111,"MEAN_ANOMALY":83.6309,"EPHEMERIS_TYPE":0,"CLASSIFICATION_TYPE":"U","NORAD_CAT_ID":54381,"ELEMENT_SET_NO":999,"REV_AT_EPOCH":16691,"BSTAR":3.972057e-5,"MEAN_MOTION_DOT":-2.0e-7,"MEAN_MOTION_DDOT":0},{"OBJECT_NAME":"FENGYUN 1C DEB","OBJECT_ID":"1999-025LW","EPOCH":"2026-03-09T17:11:48.180768","MEAN_MOTION":14.10081775,"ECCENTRICITY":0.01325823,"INCLINATION":99.2972,"RA_OF_ASC_NODE":113.9972,"ARG_OF_PERICENTER":204.3511,"MEAN_ANOMALY":274.8807,"EPHEMERIS_TYPE":0,"CLASSIFICATION_TYPE":"U","NORAD_CAT_ID":29996,"ELEMENT_SET_NO":999,"REV_AT_EPOCH":97362,"BSTAR":0.0020225521,"MEAN_MOTION_DOT":3.832e-5,"MEAN_MOTION_DDOT":0}]
